{
  "type": "FeatureCollection",
  "features": [
    {
      "type": "Feature",
      "id": "Denali_National_Park",
      "properties": { "regionKey": "Denali_National_Park", "name": "Denali National Park" },
      "geometry": { "type": "Point", "coordinates": [-150.3, 63.3] }
    },
    {
      "type": "Feature",
      "id": "Nahanni_National_Park",
      "properties": { "regionKey": "Nahanni_National_Park", "name": "Nahanni National Park Reserve" },
      "geometry": { "type": "Point", "coordinates": [-125.3, 61.6] }
    },
    {
      "type": "Feature",
      "id": "Torngat_Mountains_National_Park",
      "properties": { "regionKey": "Torngat_Mountains_National_Park", "name": "Torngat Mountains National Park" },
      "geometry": { "type": "Point", "coordinates": [-64.3, 58.7] }
    },
    {
      "type": "Feature",
      "id": "Yellowstone_National_Park",
      "properties": { "regionKey": "Yellowstone_National_Park", "name": "Yellowstone National Park" },
      "geometry": { "type": "Point", "coordinates": [-110.5, 44.6] }
    },
    {
      "type": "Feature",
      "id": "Yosemite_National_Park",
      "properties": { "regionKey": "Yosemite_National_Park", "name": "Yosemite National Park" },
      "geometry": { "type": "Point", "coordinates": [-119.6, 37.8] }
    },
    {
      "type": "Feature",
      "id": "Grand_Canyon_National_Park",
      "properties": { "regionKey": "Grand_Canyon_National_Park", "name": "Grand Canyon National Park" },
      "geometry": { "type": "Point", "coordinates": [-112.1, 36.1] }
    },
    {
      "type": "Feature",
      "id": "Reserva_de_la_Biosfera_El_vizcaino",
      "properties": { "regionKey": "Reserva_de_la_Biosfera_El_vizcaino", "name": "El Vizcaíno Biosphere Reserve" },
      "geometry": { "type": "Point", "coordinates": [-114.1, 27.5] }
    },
    {
      "type": "Feature",
      "id": "Reserva_de_la_Biosfera_Sian_Ka_an",
      "properties": { "regionKey": "Reserva_de_la_Biosfera_Sian_Ka_an", "name": "Sian Ka'an Biosphere Reserve" },
      "geometry": { "type": "Point", "coordinates": [-86.6, 20.2] }
    },
    {
      "type": "Feature",
      "id": "Tikal_National_Park",
      "properties": { "regionKey": "Tikal_National_Park", "name": "Tikal National Park" },
      "geometry": { "type": "Point", "coordinates": [-89.6, 17.2] }
    }
  ]
}
